STARLINK-36145          
1 66983U 25288AA  25365.50002315 -.00012965  00000+0 -21593-3 0  9991
2 66983  43.0010  53.9951 0001076 271.0201 169.2172 15.50529075  4844
STARLINK-35591          
1 66984U 25288AB  25365.50002315 -.00000279  00000+0  10748-5 0  9998
2 66984  43.0012  53.9999 0001497 277.9326 160.3410 15.50539985  4847
STARLINK-36103          
1 66985U 25288AC  25365.50002315  .00066590  00000+0  11319-2 0  9998
2 66985  43.0011  53.9902 0001453 330.7881 111.1572 15.50561938  4843
STARLINK-36135          
1 66986U 25288AD  25365.50002315  .00041760  00000+0  71529-3 0  9991
2 66986  43.0011  53.9843 0001444 280.1169 163.9130 15.50522206  4845
STARLINK-36147          
1 66987U 25288AE  25365.50002315  .00006926  00000+0  12393-3 0  9991
2 66987  43.0011  53.9807 0001123 279.6823 166.2526 15.50542503  4847
YAOGAN-47               
1 66988U 25289A   25362.17815560  .00004855  00000+0  20730-3 0  9990
2 66988  97.5253  67.3364 0000855 117.9958 242.1365 15.23366104  2890
CZ-4B R/B               
1 66989U 25289B   25365.19998111  .00155526  94552-5  68237-3 0  9997
2 66989  97.5222  71.9280 0134672 292.8080  65.9004 15.72071988  3461
TJS-22                  
1 66990U 25290A   25365.33131146  .00000012  00000+0  00000+0 0  9992
2 66990   1.9419 285.0443 0003325 344.4532  16.2381  1.00272490   343
CZ-3B R/B               
1 66991U 25290B   25349.72468800  .00057911 -20514-6  75879-3 0  9998
2 66991  28.4636 300.4666 7240884 182.7002 168.6250  2.38388611   165
2025-292A               
1 66993U 25292A   25365.49510073  .00009002  00000+0  64234-3 0  9995
2 66993  97.6502  77.8621 0015066 206.1377 153.9090 15.04674422  3217
2025-292B               
1 66994U 25292B   25365.49443089  .00010182  00000+0  72479-3 0  9999
2 66994  97.6513  77.8653 0014863 206.4397 153.6073 15.04733800  3218
2025-292C               
1 66995U 25292C   25365.49465883  .00011001  00000+0  78453-3 0  9995
2 66995  97.6503  77.8627 0015034 204.6381 155.4129 15.04641674  3212
